{
  "norad_id": 51985,
  "name": "STARLINK-3651",
  "history": [
    {
      "epoch": "2026-03-28T21:08:47.655168Z",
      "apogee_km": 540.648083329891,
      "perigee_km": 538.8167849332867,
      "latitude_deg": 5.000334600938296e-05,
      "longitude_deg": 169.48307925205773,
      "height_km": 540.699081651142,
      "semi_major_axis_km": 6917.869434131589,
      "eccentricity": 0.00013236,
      "inclination_deg": 53.2181,
      "raan_deg": 312.9768,
      "arg_perigee_deg": 94.4358,
      "mean_anomaly_deg": 265.6786,
      "mean_motion_rev_day": 15.08843584
    },
    {
      "epoch": "2026-03-29T00:19:33.804480Z",
      "apogee_km": 540.6451883672053,
      "perigee_km": 538.8064204337943,
      "latitude_deg": -6.8054294996718255e-06,
      "longitude_deg": 121.06547132827119,
      "height_km": 540.6854459865555,
      "semi_major_axis_km": 6917.862804400499,
      "eccentricity": 0.0001329,
      "inclination_deg": 53.2181,
      "raan_deg": 312.3821,
      "arg_perigee_deg": 93.9799,
      "mean_anomaly_deg": 266.1345,
      "mean_motion_rev_day": 15.08845753
    },
    {
      "epoch": "2026-03-29T20:59:35.039040Z",
      "apogee_km": 540.6767895859011,
      "perigee_km": 538.8131121883307,
      "latitude_deg": -1.1224691980942164e-05,
      "longitude_deg": 166.34536055508653,
      "height_km": 540.7044461601022,
      "semi_major_axis_km": 6917.881950887116,
      "eccentricity": 0.0001347,
      "inclination_deg": 53.2173,
      "raan_deg": 308.5159,
      "arg_perigee_deg": 93.9245,
      "mean_anomaly_deg": 266.1901,
      "mean_motion_rev_day": 15.08839489
    },
    {
      "epoch": "2026-03-29T20:59:35.039904Z",
      "apogee_km": 540.6765128706229,
      "perigee_km": 538.8133889036098,
      "latitude_deg": -7.539458604984347e-06,
      "longitude_deg": 166.34535968529164,
      "height_km": 540.7044272213649,
      "semi_major_axis_km": 6917.881950887116,
      "eccentricity": 0.00013466,
      "inclination_deg": 53.2173,
      "raan_deg": 308.5159,
      "arg_perigee_deg": 93.9245,
      "mean_anomaly_deg": 266.1901,
      "mean_motion_rev_day": 15.08839489
    },
    {
      "epoch": "2026-03-30T14:28:49.246464Z",
      "apogee_km": 540.6594048592706,
      "perigee_km": 538.8062458904496,
      "latitude_deg": 6.907310080665356e-05,
      "longitude_deg": -99.95345364360269,
      "height_km": 540.7022152650753,
      "semi_major_axis_km": 6917.86982537486,
      "eccentricity": 0.00013394,
      "inclination_deg": 53.2169,
      "raan_deg": 305.2444,
      "arg_perigee_deg": 94.5629,
      "mean_anomaly_deg": 265.5517,
      "mean_motion_rev_day": 15.08843456
    },
    {
      "epoch": "2026-03-30T20:50:21.666048Z",
      "apogee_km": 540.6550030121562,
      "perigee_km": 538.8033669490851,
      "latitude_deg": 4.574875492971768e-05,
      "longitude_deg": 163.21139264599293,
      "height_km": 540.6518095268661,
      "semi_major_axis_km": 6917.86618498062,
      "eccentricity": 0.00013383,
      "inclination_deg": 53.2173,
      "raan_deg": 304.0555,
      "arg_perigee_deg": 91.6652,
      "mean_anomaly_deg": 268.4494,
      "mean_motion_rev_day": 15.08844647
    },
    {
      "epoch": "2026-03-31T00:01:07.844736Z",
      "apogee_km": 540.6453936389507,
      "perigee_km": 538.8059339566471,
      "latitude_deg": -3.896518756027418e-05,
      "longitude_deg": 114.79394143054601,
      "height_km": 540.6218539298465,
      "semi_major_axis_km": 6917.862663797799,
      "eccentricity": 0.00013295,
      "inclination_deg": 53.2174,
      "raan_deg": 303.4611,
      "arg_perigee_deg": 90.027,
      "mean_anomaly_deg": 270.0874,
      "mean_motion_rev_day": 15.08845799
    },
    {
      "epoch": "2026-04-01T20:31:56.036352Z",
      "apogee_km": 540.6998631320948,
      "perigee_km": 538.7830573683277,
      "latitude_deg": 9.848986640411422e-06,
      "longitude_deg": 156.93828195510923,
      "height_km": 540.6521887766105,
      "semi_major_axis_km": 6917.878460250211,
      "eccentricity": 0.00013854,
      "inclination_deg": 53.2179,
      "raan_deg": 295.1343,
      "arg_perigee_deg": 90.8971,
      "mean_anomaly_deg": 269.218,
      "mean_motion_rev_day": 15.08840631
    },
    {
      "epoch": "2026-04-02T21:58:06.095712Z",
      "apogee_km": 540.6592251778238,
      "perigee_km": 538.814366593936,
      "latitude_deg": 6.337238767887978e-06,
      "longitude_deg": 129.593741520159,
      "height_km": 540.634022285645,
      "semi_major_axis_km": 6917.873795885879,
      "eccentricity": 0.00013334,
      "inclination_deg": 53.2168,
      "raan_deg": 290.3763,
      "arg_perigee_deg": 90.0961,
      "mean_anomaly_deg": 270.0184,
      "mean_motion_rev_day": 15.08842157
    },
    {
      "epoch": "2026-04-03T18:38:09.897216Z",
      "apogee_km": 540.8258578505256,
      "perigee_km": 538.8404004234635,
      "latitude_deg": -1.6741473614695786e-05,
      "longitude_deg": 174.86409155323327,
      "height_km": 540.7956546309312,
      "semi_major_axis_km": 6917.970129136994,
      "eccentricity": 0.0001435,
      "inclination_deg": 53.2179,
      "raan_deg": 286.5113,
      "arg_perigee_deg": 93.8627,
      "mean_anomaly_deg": 266.2529,
      "mean_motion_rev_day": 15.08810641
    },
    {
      "epoch": "2026-04-03T21:48:56.349792Z",
      "apogee_km": 540.8606423170577,
      "perigee_km": 538.8047600812561,
      "latitude_deg": 5.857251394022388e-05,
      "longitude_deg": 126.44521483236313,
      "height_km": 540.77034818143,
      "semi_major_axis_km": 6917.969701199157,
      "eccentricity": 0.00014859,
      "inclination_deg": 53.2185,
      "raan_deg": 285.9165,
      "arg_perigee_deg": 92.3427,
      "mean_anomaly_deg": 267.7736,
      "mean_motion_rev_day": 15.08810781
    },
    {
      "epoch": "2026-04-05T11:58:09.779520Z",
      "apogee_km": 540.8109745073552,
      "perigee_km": 538.7149891708577,
      "latitude_deg": 5.255175922373984e-06,
      "longitude_deg": -94.56620189183097,
      "height_km": 540.8472167283459,
      "semi_major_axis_km": 6917.899981839107,
      "eccentricity": 0.00015149,
      "inclination_deg": 53.2174,
      "raan_deg": 278.778,
      "arg_perigee_deg": 100.3741,
      "mean_anomaly_deg": 259.7422,
      "mean_motion_rev_day": 15.0883359
    },
    {
      "epoch": "2026-04-05T18:19:42.175776Z",
      "apogee_km": 540.7772617913961,
      "perigee_km": 538.7115823987597,
      "latitude_deg": -2.7914057866773643e-07,
      "longitude_deg": 168.5996543111697,
      "height_km": 540.806928169474,
      "semi_major_axis_km": 6917.881422095078,
      "eccentricity": 0.0001493,
      "inclination_deg": 53.217,
      "raan_deg": 277.59,
      "arg_perigee_deg": 99.3052,
      "mean_anomaly_deg": 260.8109,
      "mean_motion_rev_day": 15.08839662
    },
    {
      "epoch": "2026-04-05T18:19:42.176640Z",
      "apogee_km": 540.7772617913961,
      "perigee_km": 538.7115823987597,
      "latitude_deg": -2.7914024602491176e-07,
      "longitude_deg": 168.59965070131278,
      "height_km": 540.806928169476,
      "semi_major_axis_km": 6917.881422095078,
      "eccentricity": 0.0001493,
      "inclination_deg": 53.217,
      "raan_deg": 277.59,
      "arg_perigee_deg": 99.3052,
      "mean_anomaly_deg": 260.8109,
      "mean_motion_rev_day": 15.08839662
    },
    {
      "epoch": "2026-04-07T11:39:44.405568Z",
      "apogee_km": 540.5846173510608,
      "perigee_km": 538.9596005013736,
      "latitude_deg": 2.8610627582967882e-05,
      "longitude_deg": -100.83694445755668,
      "height_km": 540.6423739456678,
      "semi_major_axis_km": 6917.9091089262165,
      "eccentricity": 0.00011745,
      "inclination_deg": 53.2177,
      "raan_deg": 269.8602,
      "arg_perigee_deg": 88.1859,
      "mean_anomaly_deg": 271.9268,
      "mean_motion_rev_day": 15.08830604
    },
    {
      "epoch": "2026-04-07T18:01:17.029920Z",
      "apogee_km": 540.6788490049348,
      "perigee_km": 538.8635898881512,
      "latitude_deg": 2.4881456568234758e-05,
      "longitude_deg": 162.32765978299796,
      "height_km": 540.5756436723001,
      "semi_major_axis_km": 6917.908219446543,
      "eccentricity": 0.0001312,
      "inclination_deg": 53.218,
      "raan_deg": 268.6719,
      "arg_perigee_deg": 84.2194,
      "mean_anomaly_deg": 275.8948,
      "mean_motion_rev_day": 15.08830895
    },
    {
      "epoch": "2026-04-08T14:41:18.159936Z",
      "apogee_km": 540.6848509201463,
      "perigee_km": 538.9574367716286,
      "latitude_deg": -7.289166564937144e-06,
      "longitude_deg": -152.39433788846756,
      "height_km": 540.6854561899122,
      "semi_major_axis_km": 6917.958143845887,
      "eccentricity": 0.00012485,
      "inclination_deg": 53.2179,
      "raan_deg": 264.8034,
      "arg_perigee_deg": 87.9037,
      "mean_anomaly_deg": 272.2098,
      "mean_motion_rev_day": 15.08814562
    },
    {
      "epoch": "2026-04-09T03:24:23.298912Z",
      "apogee_km": 540.732296295053,
      "perigee_km": 538.8488213378896,
      "latitude_deg": 1.658733815031483e-08,
      "longitude_deg": 13.933539964938559,
      "height_km": 540.6498993592203,
      "semi_major_axis_km": 6917.927558816471,
      "eccentricity": 0.00013613,
      "inclination_deg": 53.218,
      "raan_deg": 262.425,
      "arg_perigee_deg": 87.7834,
      "mean_anomaly_deg": 272.3314,
      "mean_motion_rev_day": 15.08824568
    },
    {
      "epoch": "2026-04-10T11:12:05.676768Z",
      "apogee_km": 540.6336827265404,
      "perigee_km": 538.8308859910367,
      "latitude_deg": -4.58183143154837e-05,
      "longitude_deg": -110.24715068474185,
      "height_km": 540.5315415498646,
      "semi_major_axis_km": 6917.869284358789,
      "eccentricity": 0.0001303,
      "inclination_deg": 53.218,
      "raan_deg": 256.4767,
      "arg_perigee_deg": 83.8472,
      "mean_anomaly_deg": 276.2668,
      "mean_motion_rev_day": 15.08843633
    }
  ]
}